[{"OBJECT_NAME":"METOP-C","OBJECT_ID":"2018-087A","EPOCH":"2026-03-03T23:29:56.950368","MEAN_MOTION":14.21494867,"ECCENTRICITY":0.00021689,"INCLINATION":98.6777,"RA_OF_ASC_NODE":124.4488,"ARG_OF_PERICENTER":107.8385,"MEAN_ANOMALY":252.303,"EPHEMERIS_TYPE":0,"CLASSIFICATION_TYPE":"U","NORAD_CAT_ID":43689,"ELEMENT_SET_NO":999,"REV_AT_EPOCH":37988,"BSTAR":0.00010041172,"MEAN_MOTION_DOT":1.76e-6,"MEAN_MOTION_DDOT":0},{"OBJECT_NAME":"GEO-KOMPSAT-2A","OBJECT_ID":"2018-100A","EPOCH":"2026-03-03T12:58:29.015040","MEAN_MOTION":1.00269693,"ECCENTRICITY":0.0001385,"INCLINATION":0.0217,"RA_OF_ASC_NODE":70.8317,"ARG_OF_PERICENTER":331.7632,"MEAN_ANOMALY":81.5654,"EPHEMERIS_TYPE":0,"CLASSIFICATION_TYPE":"U","NORAD_CAT_ID":43823,"ELEMENT_SET_NO":999,"REV_AT_EPOCH":2657,"BSTAR":0,"MEAN_MOTION_DOT":-3.59e-6,"MEAN_MOTION_DDOT":0},{"OBJECT_NAME":"METEOR-M2 2","OBJECT_ID":"2019-038A","EPOCH":"2026-03-03T22:40:04.579680","MEAN_MOTION":14.24330789,"ECCENTRICITY":0.000119,"INCLINATION":98.9072,"RA_OF_ASC_NODE":48.7166,"ARG_OF_PERICENTER":13.7075,"MEAN_ANOMALY":346.4136,"EPHEMERIS_TYPE":0,"CLASSIFICATION_TYPE":"U","NORAD_CAT_ID":44387,"ELEMENT_SET_NO":999,"REV_AT_EPOCH":34631,"BSTAR":3.964945e-5,"MEAN_MOTION_DOT":4.6e-7,"MEAN_MOTION_DDOT":0},{"OBJECT_NAME":"ARKTIKA-M 1","OBJECT_ID":"2021-016A","EPOCH":"2026-03-02T19:44:56.440608","MEAN_MOTION":2.00620868,"ECCENTRICITY":0.72428147,"INCLINATION":63.2036,"RA_OF_ASC_NODE":72.8571,"ARG_OF_PERICENTER":269.4536,"MEAN_ANOMALY":15.2019,"EPHEMERIS_TYPE":0,"CLASSIFICATION_TYPE":"U","NORAD_CAT_ID":47719,"ELEMENT_SET_NO":999,"REV_AT_EPOCH":3665,"BSTAR":0,"MEAN_MOTION_DOT":-1.08e-6,"MEAN_MOTION_DDOT":0},{"OBJECT_NAME":"FENGYUN 3E","OBJECT_ID":"2021-062A","EPOCH":"2026-03-03T23:51:38.002176","MEAN_MOTION":14.19893016,"ECCENTRICITY":0.0002423,"INCLINATION":98.7506,"RA_OF_ASC_NODE":67.5712,"ARG_OF_PERICENTER":52.647,"MEAN_ANOMALY":307.4927,"EPHEMERIS_TYPE":0,"CLASSIFICATION_TYPE":"U","NORAD_CAT_ID":49008,"ELEMENT_SET_NO":999,"REV_AT_EPOCH":24165,"BSTAR":6.0173476e-5,"MEAN_MOTION_DOT":8.4e-7,"MEAN_MOTION_DDOT":0},{"OBJECT_NAME":"GOES 18","OBJECT_ID":"2022-021A","EPOCH":"2026-03-03T18:33:34.996608","MEAN_MOTION":1.00271736,"ECCENTRICITY":6.015e-5,"INCLINATION":0.0285,"RA_OF_ASC_NODE":75.7364,"ARG_OF_PERICENTER":319.5556,"MEAN_ANOMALY":267.6184,"EPHEMERIS_TYPE":0,"CLASSIFICATION_TYPE":"U","NORAD_CAT_ID":51850,"ELEMENT_SET_NO":999,"REV_AT_EPOCH":553,"BSTAR":0,"MEAN_MOTION_DOT":8.3e-7,"MEAN_MOTION_DDOT":0},{"OBJECT_NAME":"NOAA 21 (JPSS-2)","OBJECT_ID":"2022-150A","EPOCH":"2026-03-03T22:37:04.008864","MEAN_MOTION":14.19550369,"ECCENTRICITY":0.00025218,"INCLINATION":98.7549,"RA_OF_ASC_NODE":3.2743,"ARG_OF_PERICENTER":116.7706,"MEAN_ANOMALY":243.3728,"EPHEMERIS_TYPE":0,"CLASSIFICATION_TYPE":"U","NORAD_CAT_ID":54234,"ELEMENT_SET_NO":999,"REV_AT_EPOCH":17161,"BSTAR":7.7027529e-5,"MEAN_MOTION_DOT":1.18e-6,"MEAN_MOTION_DDOT":0},{"OBJECT_NAME":"METEOSAT-12 (MTG-I1)","OBJECT_ID":"2022-170C","EPOCH":"2026-03-03T14:04:30.783360","MEAN_MOTION":1.00274767,"ECCENTRICITY":0.0001882,"INCLINATION":0.745,"RA_OF_ASC_NODE":29.0227,"ARG_OF_PERICENTER":282.4552,"MEAN_ANOMALY":60.7136,"EPHEMERIS_TYPE":0,"CLASSIFICATION_TYPE":"U","NORAD_CAT_ID":54743,"ELEMENT_SET_NO":999,"REV_AT_EPOCH":1191,"BSTAR":0,"MEAN_MOTION_DOT":-2.1e-7,"MEAN_MOTION_DDOT":0},{"OBJECT_NAME":"TIANMU-1 03","OBJECT_ID":"2023-039A","EPOCH":"2026-03-03T22:00:49.795200","MEAN_MOTION":15.43938622,"ECCENTRICITY":0.00039625,"INCLINATION":97.5168,"RA_OF_ASC_NODE":233.0419,"ARG_OF_PERICENTER":117.9662,"MEAN_ANOMALY":242.1987,"EPHEMERIS_TYPE":0,"CLASSIFICATION_TYPE":"U","NORAD_CAT_ID":55973,"ELEMENT_SET_NO":999,"REV_AT_EPOCH":16457,"BSTAR":0.00050306645,"MEAN_MOTION_DOT":0.00022833,"MEAN_MOTION_DDOT":0},{"OBJECT_NAME":"TIANMU-1 04","OBJECT_ID":"2023-039B","EPOCH":"2026-03-03T22:36:48.571776","MEAN_MOTION":15.4434559,"ECCENTRICITY":0.00046298,"INCLINATION":97.5099,"RA_OF_ASC_NODE":232.2297,"ARG_OF_PERICENTER":114.2668,"MEAN_ANOMALY":245.9064,"EPHEMERIS_TYPE":0,"CLASSIFICATION_TYPE":"U","NORAD_CAT_ID":55974,"ELEMENT_SET_NO":999,"REV_AT_EPOCH":16458,"BSTAR":0.00055474695,"MEAN_MOTION_DOT":0.00025549,"MEAN_MOTION_DDOT":0},{"OBJECT_NAME":"TIANMU-1 05","OBJECT_ID":"2023-039C","EPOCH":"2026-03-03T23:00:07.608096","MEAN_MOTION":15.43882512,"ECCENTRICITY":0.00037486,"INCLINATION":97.5145,"RA_OF_ASC_NODE":232.738,"ARG_OF_PERICENTER":135.2873,"MEAN_ANOMALY":224.8677,"EPHEMERIS_TYPE":0,"CLASSIFICATION_TYPE":"U","NORAD_CAT_ID":55975,"ELEMENT_SET_NO":999,"REV_AT_EPOCH":16456,"BSTAR":0.00054532764,"MEAN_MOTION_DOT":0.00024717,"MEAN_MOTION_DDOT":0},{"OBJECT_NAME":"TIANMU-1 06","OBJECT_ID":"2023-039D","EPOCH":"2026-03-03T22:36:41.112000","MEAN_MOTION":15.44375201,"ECCENTRICITY":0.00040366,"INCLINATION":97.5156,"RA_OF_ASC_NODE":233.2563,"ARG_OF_PERICENTER":130.9637,"MEAN_ANOMALY":229.1961,"EPHEMERIS_TYPE":0,"CLASSIFICATION_TYPE":"U","NORAD_CAT_ID":55976,"ELEMENT_SET_NO":999,"REV_AT_EPOCH":16458,"BSTAR":0.00054732988,"MEAN_MOTION_DOT":0.00025228,"MEAN_MOTION_DDOT":0},{"OBJECT_NAME":"FENGYUN 3G","OBJECT_ID":"2023-055A","EPOCH":"2026-03-03T20:21:01.285920","MEAN_MOTION":15.54176618,"ECCENTRICITY":0.00107253,"INCLINATION":49.9931,"RA_OF_ASC_NODE":169.1646,"ARG_OF_PERICENTER":347.1492,"MEAN_ANOMALY":12.9201,"EPHEMERIS_TYPE":0,"CLASSIFICATION_TYPE":"U","NORAD_CAT_ID":56232,"ELEMENT_SET_NO":999,"REV_AT_EPOCH":16363,"BSTAR":0.00062932845,"MEAN_MOTION_DOT":0.0004163,"MEAN_MOTION_DDOT":0},{"OBJECT_NAME":"METEOR-M2 3","OBJECT_ID":"2023-091A","EPOCH":"2026-03-03T23:39:31.887936","MEAN_MOTION":14.2403696,"ECCENTRICITY":0.00050425,"INCLINATION":98.6226,"RA_OF_ASC_NODE":120.0531,"ARG_OF_PERICENTER":112.2527,"MEAN_ANOMALY":247.9187,"EPHEMERIS_TYPE":0,"CLASSIFICATION_TYPE":"U","NORAD_CAT_ID":57166,"ELEMENT_SET_NO":999,"REV_AT_EPOCH":13954,"BSTAR":2.7137118e-5,"MEAN_MOTION_DOT":1.9e-7,"MEAN_MOTION_DDOT":0},{"OBJECT_NAME":"TIANMU-1 07","OBJECT_ID":"2023-101A","EPOCH":"2026-03-03T18:15:16.127712","MEAN_MOTION":15.29128212,"ECCENTRICITY":0.00045926,"INCLINATION":97.273,"RA_OF_ASC_NODE":115.8436,"ARG_OF_PERICENTER":144.4705,"MEAN_ANOMALY":215.6842,"EPHEMERIS_TYPE":0,"CLASSIFICATION_TYPE":"U","NORAD_CAT_ID":57399,"ELEMENT_SET_NO":999,"REV_AT_EPOCH":14553,"BSTAR":0.00035389577,"MEAN_MOTION_DOT":9.938e-5,"MEAN_MOTION_DDOT":0},{"OBJECT_NAME":"TIANMU-1 08","OBJECT_ID":"2023-101B","EPOCH":"2026-03-04T02:57:28.647072","MEAN_MOTION":15.29236106,"ECCENTRICITY":0.0006498,"INCLINATION":97.2729,"RA_OF_ASC_NODE":115.9747,"ARG_OF_PERICENTER":142.5381,"MEAN_ANOMALY":217.6313,"EPHEMERIS_TYPE":0,"CLASSIFICATION_TYPE":"U","NORAD_CAT_ID":57400,"ELEMENT_SET_NO":999,"REV_AT_EPOCH":14558,"BSTAR":2.0954e-5,"MEAN_MOTION_DOT":5.22e-6,"MEAN_MOTION_DDOT":0},{"OBJECT_NAME":"TIANMU-1 09","OBJECT_ID":"2023-101C","EPOCH":"2026-03-03T20:13:42.023136","MEAN_MOTION":15.29217891,"ECCENTRICITY":0.00052525,"INCLINATION":97.2684,"RA_OF_ASC_NODE":115.1798,"ARG_OF_PERICENTER":149.5222,"MEAN_ANOMALY":210.6325,"EPHEMERIS_TYPE":0,"CLASSIFICATION_TYPE":"U","NORAD_CAT_ID":57401,"ELEMENT_SET_NO":999,"REV_AT_EPOCH":14554,"BSTAR":2.9841685e-5,"MEAN_MOTION_DOT":7.74e-6,"MEAN_MOTION_DDOT":0}]
