METOP-C                 
1 43689U 18087A   26062.97913137  .00000176  00000+0  10041-3 0  9992
2 43689  98.6777 124.4488 0002168 107.8385 252.3030 14.21494867379882
GEO-KOMPSAT-2A          
1 43823U 18100A   26062.54061360 -.00000359  00000+0  00000+0 0  9997
2 43823   0.0217  70.8317 0001385 331.7632  81.5654  1.00269693 26575
METEOR-M2 2             
1 44387U 19038A   26062.94449745  .00000046  00000+0  39649-4 0  9993
2 44387  98.9072  48.7166 0001190  13.7075 346.4136 14.24330789346314
ARKTIKA-M 1             
1 47719U 21016A   26061.82287547 -.00000108  00000+0  00000+0 0  9994
2 47719  63.2036  72.8571 7242814 269.4536  15.2019  2.00620868 36653
FENGYUN 3E              
1 49008U 21062A   26062.99418984  .00000084  00000+0  60173-4 0  9992
2 49008  98.7506  67.5712 0002423  52.6470 307.4927 14.19893016241653
GOES 18                 
1 51850U 22021A   26062.77332172  .00000083  00000+0  00000+0 0  9993
2 51850   0.0285  75.7364 0000601 319.5556 267.6184  1.00271736  5533
NOAA 21 (JPSS-2)        
1 54234U 22150A   26062.94240751  .00000118  00000+0  77028-4 0  9993
2 54234  98.7549   3.2743 0002521 116.7706 243.3728 14.19550369171617
METEOSAT-12 (MTG-I1)    
1 54743U 22170C   26062.58646740 -.00000021  00000+0  00000+0 0  9993
2 54743   0.7450  29.0227 0001882 282.4552  60.7136  1.00274767 11919
TIANMU-1 03             
1 55973U 23039A   26062.91724300  .00022833  00000+0  50307-3 0  9993
2 55973  97.5168 233.0419 0003962 117.9662 242.1987 15.43938622164570
TIANMU-1 04             
1 55974U 23039B   26062.94222884  .00025549  00000+0  55475-3 0  9995
2 55974  97.5099 232.2297 0004629 114.2668 245.9064 15.44345590164581
TIANMU-1 05             
1 55975U 23039C   26062.95842139  .00024717  00000+0  54533-3 0  9998
2 55975  97.5145 232.7380 0003748 135.2873 224.8677 15.43882512164567
TIANMU-1 06             
1 55976U 23039D   26062.94214250  .00025228  00000+0  54733-3 0  9995
2 55976  97.5156 233.2563 0004036 130.9637 229.1961 15.44375201164589
FENGYUN 3G              
1 56232U 23055A   26062.84793155  .00041630  00000+0  62933-3 0  9990
2 56232  49.9931 169.1646 0010725 347.1492  12.9201 15.54176618163631
METEOR-M2 3             
1 57166U 23091A   26062.98578574  .00000019  00000+0  27137-4 0  9992
2 57166  98.6226 120.0531 0005042 112.2527 247.9187 14.24036960139548
TIANMU-1 07             
1 57399U 23101A   26062.76060333  .00009938  00000+0  35390-3 0  9995
2 57399  97.2730 115.8436 0004592 144.4705 215.6842 15.29128212145535
TIANMU-1 08             
1 57400U 23101B   26063.12324823  .00000522  00000+0  20954-4 0  9997
2 57400  97.2729 115.9747 0006498 142.5381 217.6313 15.29236106145580
TIANMU-1 09             
1 57401U 23101C   26062.84284749  .00000774  00000+0  29842-4 0  9992
2 57401  97.2684 115.1798 0005252 149.5222 210.6325 15.29217891145549
